{
    "links": {
        "self": "http://www.neowsapp.com/rest/v1/neo/3843593?api_key=iIulBulltgU6a56xZRHN4H3l9WmuAYTsLGpBGhQ2"
    },
    "id": "3843593",
    "neo_reference_id": "3843593",
    "name": "(2019 QE1)",
    "designation": "2019 QE1",
    "nasa_jpl_url": "http://ssd.jpl.nasa.gov/sbdb.cgi?sstr=3843593",
    "absolute_magnitude_h": 25.2,
    "estimated_diameter": {
        "kilometers": {
            "estimated_diameter_min": 0.0242412481,
            "estimated_diameter_max": 0.0542050786
        },
        "meters": {
            "estimated_diameter_min": 24.2412481101,
            "estimated_diameter_max": 54.2050786336
        },
        "miles": {
            "estimated_diameter_min": 0.0150628086,
            "estimated_diameter_max": 0.0336814639
        },
        "feet": {
            "estimated_diameter_min": 79.5316564495,
            "estimated_diameter_max": 177.8381901842
        }
    },
    "is_potentially_hazardous_asteroid": false,
    "close_approach_data": [
        {
            "close_approach_date": "2015-12-02",
            "close_approach_date_full": "2015-Dec-02 03:38",
            "epoch_date_close_approach": 1449027480000,
            "relative_velocity": {
                "kilometers_per_second": "17.407762191",
                "kilometers_per_hour": "62667.9438877667",
                "miles_per_hour": "38939.4232451515"
            },
            "miss_distance": {
                "astronomical": "0.3842469975",
                "lunar": "149.4720820275",
                "kilometers": "57482532.379895325",
                "miles": "35717989.355692485"
            },
            "orbiting_body": "Earth"
        },
        {
            "close_approach_date": "2017-11-13",
            "close_approach_date_full": "2017-Nov-13 11:57",
            "epoch_date_close_approach": 1510574220000,
            "relative_velocity": {
                "kilometers_per_second": "9.3389175969",
                "kilometers_per_hour": "33620.1033488109",
                "miles_per_hour": "20890.2247724875"
            },
            "miss_distance": {
                "astronomical": "0.1428706336",
                "lunar": "55.5766764704",
                "kilometers": "21373142.472110432",
                "miles": "13280654.9000186816"
            },
            "orbiting_body": "Earth"
        },
        {
            "close_approach_date": "2019-09-05",
            "close_approach_date_full": "2019-Sep-05 21:39",
            "epoch_date_close_approach": 1567719540000,
            "relative_velocity": {
                "kilometers_per_second": "6.6432674263",
                "kilometers_per_hour": "23915.7627346558",
                "miles_per_hour": "14860.3249058754"
            },
            "miss_distance": {
                "astronomical": "0.0337655702",
                "lunar": "13.1348068078",
                "kilometers": "5051257.381255474",
                "miles": "3138705.7929905812"
            },
            "orbiting_body": "Earth"
        },
        {
            "close_approach_date": "2021-08-10",
            "close_approach_date_full": "2021-Aug-10 07:24",
            "epoch_date_close_approach": 1628580240000,
            "relative_velocity": {
                "kilometers_per_second": "13.886426661",
                "kilometers_per_hour": "49991.1359794744",
                "miles_per_hour": "31062.5477979128"
            },
            "miss_distance": {
                "astronomical": "0.2483991575",
                "lunar": "96.6272722675",
                "kilometers": "37159984.871794525",
                "miles": "23090143.895133445"
            },
            "orbiting_body": "Earth"
        },
        {
            "close_approach_date": "2021-12-20",
            "close_approach_date_full": "2021-Dec-20 21:23",
            "epoch_date_close_approach": 1640035380000,
            "relative_velocity": {
                "kilometers_per_second": "4.6048592045",
                "kilometers_per_hour": "16577.4931361673",
                "miles_per_hour": "10300.6095545258"
            },
            "miss_distance": {
                "astronomical": "0.4569492538",
                "lunar": "177.7532597282",
                "kilometers": "68358635.066569406",
                "miles": "42476086.1880775628"
            },
            "orbiting_body": "Earth"
        }
    ],
    "orbital_data": {
        "orbit_id": "4",
        "orbit_determination_date": "2019-09-08 05:53:53",
        "first_observation_date": "2019-08-22",
        "last_observation_date": "2019-09-08",
        "data_arc_in_days": 17,
        "observations_used": 31,
        "orbit_uncertainty": "8",
        "minimum_orbit_intersection": ".0335069",
        "jupiter_tisserand_invariant": "4.337",
        "epoch_osculation": "2458719.5",
        "eccentricity": ".3711199713304835",
        "semi_major_axis": "1.566213619773424",
        "inclination": "5.135077473338047",
        "ascending_node_longitude": "323.6087408814853",
        "orbital_period": "715.9371874448224",
        "perihelion_distance": ".9849604661056979",
        "perihelion_argument": "49.86017398172253",
        "aphelion_distance": "2.14746677344115",
        "perihelion_time": "2458759.190979808355",
        "mean_anomaly": "340.041890571428",
        "mean_motion": ".5028374085230003",
        "equinox": "J2000",
        "orbit_class": {
            "orbit_class_type": "APO",
            "orbit_class_description": "Near-Earth asteroid orbits which cross the Earth’s orbit similar to that of 1862 Apollo",
            "orbit_class_range": "a (semi-major axis) > 1.0 AU; q (perihelion) < 1.017 AU"
        }
    },
    "is_sentry_object": false
}